2025-313AS              
1 67288U 25313AS  26017.60906558  .00005691  00000+0  25741-3 0  9992
2 67288  97.4100  94.7546 0012589 152.4200 207.7706 15.21241558  3059
NASBSAT-1               
1 67289U 25313AT  26017.60670630  .00012922  00000+0  57485-3 0  9997
2 67289  97.4114  94.7623 0010618 159.8125 200.3533 15.21566901  3058
SAKHACUBE-CHOLBON (RS1*)
1 67290U 25313AU  26017.60698084  .00009866  00000+0  44082-3 0  9994
2 67290  97.4113  94.7617 0010456 158.8274 201.3397 15.21489276  3054
QMR-KWT-2 (RS95S)       
1 67291U 25313AV  26017.60643164  .00013387  00000+0  59557-3 0  9990
2 67291  97.4113  94.7624 0010349 158.8033 201.3634 15.21560545  3050
SITRO-AIS-64            
1 67292U 25313AW  26017.60575830  .00010650  00000+0  47427-3 0  9998
2 67292  97.4117  94.7647 0010131 158.4596 201.7068 15.21586764  3055
SCORPION (RS89S)        
1 67293U 25313AX  26017.60732246  .00004148  00000+0  18796-3 0  9997
2 67293  97.4110  94.7590 0012062 150.1801 210.0124 15.21347647  3050
SITRO-AIS-63            
1 67294U 25313AY  26017.60520041  .00010084  00000+0  44873-3 0  9997
2 67294  97.4120  94.7659 0010030 158.7625 201.4029 15.21627757  3050
ZORKIY-2M-5             
1 67295U 25313AZ  26017.60529555  .00008986  00000+0  40055-3 0  9993
2 67295  97.4111  94.7617 0011568 149.9442 210.2460 15.21590070  3055
SITRO-AIS-62            
1 67296U 25313BA  26017.60455399  .00010200  00000+0  45324-3 0  9994
2 67296  97.4123  94.7680 0009811 159.1762 200.9875 15.21676531  3058
SITRO-AIS-61            
1 67297U 25313BB  26017.60379183  .00009647  00000+0  42811-3 0  9992
2 67297  97.4126  94.7689 0009486 161.0630 199.0960 15.21737835  3053
TIANHUI 7               
1 67300U 25314A   26017.52022844  .00001791  00000+0  73576-4 0  9993
2 67300  97.4195  94.5857 0001681 103.8976 256.2449 15.25505846  2815
CZ-4B R/B               
1 67301U 25314B   26017.15207156  .00101030  51565-5  48776-3 0  9992
2 67301  97.3743  95.2759 0137727 311.0544  47.8882 15.69810371  2789
