CCSDS_OMM_VERS = 2.0
CREATION_DATE  = 
ORIGINATOR     = 

OBJECT_NAME    = 2025-313AS
OBJECT_ID      = 2025-313AS
CENTER_NAME    = EARTH
REF_FRAME      = TEME
TIME_SYSTEM    = UTC
MEAN_ELEMENT_THEORY = SGP/SGP4

EPOCH          = 2026-01-17T14:37:03.266112
MEAN_MOTION    = 15.21241558
ECCENTRICITY   = .00125897
INCLINATION    = 97.4100
RA_OF_ASC_NODE = 94.7546
ARG_OF_PERICENTER = 152.4200
MEAN_ANOMALY   = 207.7706

EPHEMERIS_TYPE = 0
CLASSIFICATION_TYPE = U
NORAD_CAT_ID   = 67288
ELEMENT_SET_NO = 999
REV_AT_EPOCH   = 305
BSTAR          = .25740703E-3
MEAN_MOTION_DOT = .5691E-4
MEAN_MOTION_DDOT = 0

CCSDS_OMM_VERS = 2.0
CREATION_DATE  = 
ORIGINATOR     = 

OBJECT_NAME    = NASBSAT-1
OBJECT_ID      = 2025-313AT
CENTER_NAME    = EARTH
REF_FRAME      = TEME
TIME_SYSTEM    = UTC
MEAN_ELEMENT_THEORY = SGP/SGP4

EPOCH          = 2026-01-17T14:33:39.424320
MEAN_MOTION    = 15.21566901
ECCENTRICITY   = .00106187
INCLINATION    = 97.4114
RA_OF_ASC_NODE = 94.7623
ARG_OF_PERICENTER = 159.8125
MEAN_ANOMALY   = 200.3533

EPHEMERIS_TYPE = 0
CLASSIFICATION_TYPE = U
NORAD_CAT_ID   = 67289
ELEMENT_SET_NO = 999
REV_AT_EPOCH   = 305
BSTAR          = .57485116E-3
MEAN_MOTION_DOT = .12922E-3
MEAN_MOTION_DDOT = 0

CCSDS_OMM_VERS = 2.0
CREATION_DATE  = 
ORIGINATOR     = 

OBJECT_NAME    = SAKHACUBE-CHOLBON (RS18S)
OBJECT_ID      = 2025-313AU
CENTER_NAME    = EARTH
REF_FRAME      = TEME
TIME_SYSTEM    = UTC
MEAN_ELEMENT_THEORY = SGP/SGP4

EPOCH          = 2026-01-17T14:34:03.144576
MEAN_MOTION    = 15.21489276
ECCENTRICITY   = .00104566
INCLINATION    = 97.4113
RA_OF_ASC_NODE = 94.7617
ARG_OF_PERICENTER = 158.8274
MEAN_ANOMALY   = 201.3397

EPHEMERIS_TYPE = 0
CLASSIFICATION_TYPE = U
NORAD_CAT_ID   = 67290
ELEMENT_SET_NO = 999
REV_AT_EPOCH   = 305
BSTAR          = .44081843E-3
MEAN_MOTION_DOT = .9866E-4
MEAN_MOTION_DDOT = 0

CCSDS_OMM_VERS = 2.0
CREATION_DATE  = 
ORIGINATOR     = 

OBJECT_NAME    = QMR-KWT-2 (RS95S)
OBJECT_ID      = 2025-313AV
CENTER_NAME    = EARTH
REF_FRAME      = TEME
TIME_SYSTEM    = UTC
MEAN_ELEMENT_THEORY = SGP/SGP4

EPOCH          = 2026-01-17T14:33:15.693696
MEAN_MOTION    = 15.21560545
ECCENTRICITY   = .00103496
INCLINATION    = 97.4113
RA_OF_ASC_NODE = 94.7624
ARG_OF_PERICENTER = 158.8033
MEAN_ANOMALY   = 201.3634

EPHEMERIS_TYPE = 0
CLASSIFICATION_TYPE = U
NORAD_CAT_ID   = 67291
ELEMENT_SET_NO = 999
REV_AT_EPOCH   = 305
BSTAR          = .59556688E-3
MEAN_MOTION_DOT = .13387E-3
MEAN_MOTION_DDOT = 0

CCSDS_OMM_VERS = 2.0
CREATION_DATE  = 
ORIGINATOR     = 

OBJECT_NAME    = SITRO-AIS-64
OBJECT_ID      = 2025-313AW
CENTER_NAME    = EARTH
REF_FRAME      = TEME
TIME_SYSTEM    = UTC
MEAN_ELEMENT_THEORY = SGP/SGP4

EPOCH          = 2026-01-17T14:32:17.517120
MEAN_MOTION    = 15.21586764
ECCENTRICITY   = .00101315
INCLINATION    = 97.4117
RA_OF_ASC_NODE = 94.7647
ARG_OF_PERICENTER = 158.4596
MEAN_ANOMALY   = 201.7068

EPHEMERIS_TYPE = 0
CLASSIFICATION_TYPE = U
NORAD_CAT_ID   = 67292
ELEMENT_SET_NO = 999
REV_AT_EPOCH   = 305
BSTAR          = .47426541E-3
MEAN_MOTION_DOT = .1065E-3
MEAN_MOTION_DDOT = 0

CCSDS_OMM_VERS = 2.0
CREATION_DATE  = 
ORIGINATOR     = 

OBJECT_NAME    = SCORPION (RS89S)
OBJECT_ID      = 2025-313AX
CENTER_NAME    = EARTH
REF_FRAME      = TEME
TIME_SYSTEM    = UTC
MEAN_ELEMENT_THEORY = SGP/SGP4

EPOCH          = 2026-01-17T14:34:32.660544
MEAN_MOTION    = 15.21347647
ECCENTRICITY   = .00120628
INCLINATION    = 97.4110
RA_OF_ASC_NODE = 94.7590
ARG_OF_PERICENTER = 150.1801
MEAN_ANOMALY   = 210.0124

EPHEMERIS_TYPE = 0
CLASSIFICATION_TYPE = U
NORAD_CAT_ID   = 67293
ELEMENT_SET_NO = 999
REV_AT_EPOCH   = 305
BSTAR          = .1879555E-3
MEAN_MOTION_DOT = .4148E-4
MEAN_MOTION_DDOT = 0

CCSDS_OMM_VERS = 2.0
CREATION_DATE  = 
ORIGINATOR     = 

OBJECT_NAME    = SITRO-AIS-63
OBJECT_ID      = 2025-313AY
CENTER_NAME    = EARTH
REF_FRAME      = TEME
TIME_SYSTEM    = UTC
MEAN_ELEMENT_THEORY = SGP/SGP4

EPOCH          = 2026-01-17T14:31:29.315424
MEAN_MOTION    = 15.21627757
ECCENTRICITY   = .00100306
INCLINATION    = 97.4120
RA_OF_ASC_NODE = 94.7659
ARG_OF_PERICENTER = 158.7625
MEAN_ANOMALY   = 201.4029

EPHEMERIS_TYPE = 0
CLASSIFICATION_TYPE = U
NORAD_CAT_ID   = 67294
ELEMENT_SET_NO = 999
REV_AT_EPOCH   = 305
BSTAR          = .44873116E-3
MEAN_MOTION_DOT = .10084E-3
MEAN_MOTION_DDOT = 0

CCSDS_OMM_VERS = 2.0
CREATION_DATE  = 
ORIGINATOR     = 

OBJECT_NAME    = ZORKIY-2M-5
OBJECT_ID      = 2025-313AZ
CENTER_NAME    = EARTH
REF_FRAME      = TEME
TIME_SYSTEM    = UTC
MEAN_ELEMENT_THEORY = SGP/SGP4

EPOCH          = 2026-01-17T14:31:37.535520
MEAN_MOTION    = 15.21590070
ECCENTRICITY   = .00115689
INCLINATION    = 97.4111
RA_OF_ASC_NODE = 94.7617
ARG_OF_PERICENTER = 149.9442
MEAN_ANOMALY   = 210.2460

EPHEMERIS_TYPE = 0
CLASSIFICATION_TYPE = U
NORAD_CAT_ID   = 67295
ELEMENT_SET_NO = 999
REV_AT_EPOCH   = 305
BSTAR          = .40054775E-3
MEAN_MOTION_DOT = .8986E-4
MEAN_MOTION_DDOT = 0

CCSDS_OMM_VERS = 2.0
CREATION_DATE  = 
ORIGINATOR     = 

OBJECT_NAME    = SITRO-AIS-62
OBJECT_ID      = 2025-313BA
CENTER_NAME    = EARTH
REF_FRAME      = TEME
TIME_SYSTEM    = UTC
MEAN_ELEMENT_THEORY = SGP/SGP4

EPOCH          = 2026-01-17T14:30:33.464736
MEAN_MOTION    = 15.21676531
ECCENTRICITY   = .00098118
INCLINATION    = 97.4123
RA_OF_ASC_NODE = 94.7680
ARG_OF_PERICENTER = 159.1762
MEAN_ANOMALY   = 200.9875

EPHEMERIS_TYPE = 0
CLASSIFICATION_TYPE = U
NORAD_CAT_ID   = 67296
ELEMENT_SET_NO = 999
REV_AT_EPOCH   = 305
BSTAR          = .45324435E-3
MEAN_MOTION_DOT = .102E-3
MEAN_MOTION_DDOT = 0

CCSDS_OMM_VERS = 2.0
CREATION_DATE  = 
ORIGINATOR     = 

OBJECT_NAME    = SITRO-AIS-61
OBJECT_ID      = 2025-313BB
CENTER_NAME    = EARTH
REF_FRAME      = TEME
TIME_SYSTEM    = UTC
MEAN_ELEMENT_THEORY = SGP/SGP4

EPOCH          = 2026-01-17T14:29:27.614112
MEAN_MOTION    = 15.21737835
ECCENTRICITY   = .00094863
INCLINATION    = 97.4126
RA_OF_ASC_NODE = 94.7689
ARG_OF_PERICENTER = 161.0630
MEAN_ANOMALY   = 199.0960

EPHEMERIS_TYPE = 0
CLASSIFICATION_TYPE = U
NORAD_CAT_ID   = 67297
ELEMENT_SET_NO = 999
REV_AT_EPOCH   = 305
BSTAR          = .42811462E-3
MEAN_MOTION_DOT = .9647E-4
MEAN_MOTION_DDOT = 0

CCSDS_OMM_VERS = 2.0
CREATION_DATE  = 
ORIGINATOR     = 

OBJECT_NAME    = TIANHUI 7
OBJECT_ID      = 2025-314A
CENTER_NAME    = EARTH
REF_FRAME      = TEME
TIME_SYSTEM    = UTC
MEAN_ELEMENT_THEORY = SGP/SGP4

EPOCH          = 2026-01-17T12:29:07.737216
MEAN_MOTION    = 15.25505846
ECCENTRICITY   = .00016812
INCLINATION    = 97.4195
RA_OF_ASC_NODE = 94.5857
ARG_OF_PERICENTER = 103.8976
MEAN_ANOMALY   = 256.2449

EPHEMERIS_TYPE = 0
CLASSIFICATION_TYPE = U
NORAD_CAT_ID   = 67300
ELEMENT_SET_NO = 999
REV_AT_EPOCH   = 281
BSTAR          = .73576189E-4
MEAN_MOTION_DOT = .1791E-4
MEAN_MOTION_DDOT = 0

CCSDS_OMM_VERS = 2.0
CREATION_DATE  = 
ORIGINATOR     = 

OBJECT_NAME    = CZ-4B R/B
OBJECT_ID      = 2025-314B
CENTER_NAME    = EARTH
REF_FRAME      = TEME
TIME_SYSTEM    = UTC
MEAN_ELEMENT_THEORY = SGP/SGP4

EPOCH          = 2026-01-17T03:38:58.982784
MEAN_MOTION    = 15.69810371
ECCENTRICITY   = .01377276
INCLINATION    = 97.3743
RA_OF_ASC_NODE = 95.2759
ARG_OF_PERICENTER = 311.0544
MEAN_ANOMALY   = 47.8882

EPHEMERIS_TYPE = 0
CLASSIFICATION_TYPE = U
NORAD_CAT_ID   = 67301
ELEMENT_SET_NO = 999
REV_AT_EPOCH   = 278
BSTAR          = .48775542E-3
MEAN_MOTION_DOT = .10103E-2
MEAN_MOTION_DDOT = .5156452E-5

